{
    "links": {
        "self": "http://www.neowsapp.com/rest/v1/neo/3427740?api_key=iIulBulltgU6a56xZRHN4H3l9WmuAYTsLGpBGhQ2"
    },
    "id": "3427740",
    "neo_reference_id": "3427740",
    "name": "(2008 SF8)",
    "designation": "2008 SF8",
    "nasa_jpl_url": "http://ssd.jpl.nasa.gov/sbdb.cgi?sstr=3427740",
    "absolute_magnitude_h": 23.7,
    "estimated_diameter": {
        "kilometers": {
            "estimated_diameter_min": 0.0483676488,
            "estimated_diameter_max": 0.1081533507
        },
        "meters": {
            "estimated_diameter_min": 48.3676488219,
            "estimated_diameter_max": 108.1533506775
        },
        "miles": {
            "estimated_diameter_min": 0.0300542543,
            "estimated_diameter_max": 0.0672033557
        },
        "feet": {
            "estimated_diameter_min": 158.6865169607,
            "estimated_diameter_max": 354.8338390368
        }
    },
    "is_potentially_hazardous_asteroid": false,
    "close_approach_data": [
        {
            "close_approach_date": "1992-08-03",
            "close_approach_date_full": "1992-Aug-03 08:58",
            "epoch_date_close_approach": 712832280000,
            "relative_velocity": {
                "kilometers_per_second": "4.414466886",
                "kilometers_per_hour": "15892.0807896269",
                "miles_per_hour": "9874.7209773101"
            },
            "miss_distance": {
                "astronomical": "1.1878433446",
                "lunar": "462.0710610494",
                "kilometers": "177698834.245836002",
                "miles": "110416935.4990287476"
            },
            "orbiting_body": "Juptr"
        },
        {
            "close_approach_date": "2008-09-22",
            "close_approach_date_full": "2008-Sep-22 10:26",
            "epoch_date_close_approach": 1222079160000,
            "relative_velocity": {
                "kilometers_per_second": "7.0014396429",
                "kilometers_per_hour": "25205.1827145034",
                "miles_per_hour": "15661.5203372424"
            },
            "miss_distance": {
                "astronomical": "0.1206571135",
                "lunar": "46.9356171515",
                "kilometers": "18050047.179948245",
                "miles": "11215779.235025981"
            },
            "orbiting_body": "Earth"
        },
        {
            "close_approach_date": "2052-05-09",
            "close_approach_date_full": "2052-May-09 04:00",
            "epoch_date_close_approach": 2598840000000,
            "relative_velocity": {
                "kilometers_per_second": "5.8450442712",
                "kilometers_per_hour": "21042.1593764104",
                "miles_per_hour": "13074.7795303035"
            },
            "miss_distance": {
                "astronomical": "1.6169985493",
                "lunar": "629.0124356777",
                "kilometers": "241899538.768369991",
                "miles": "150309403.4510122358"
            },
            "orbiting_body": "Juptr"
        }
    ],
    "orbital_data": {
        "orbit_id": "12",
        "orbit_determination_date": "2017-04-06 09:02:52",
        "first_observation_date": "2008-09-25",
        "last_observation_date": "2008-11-01",
        "data_arc_in_days": 37,
        "observations_used": 46,
        "orbit_uncertainty": "6",
        "minimum_orbit_intersection": ".0905623",
        "jupiter_tisserand_invariant": "3.034",
        "epoch_osculation": "2459000.5",
        "eccentricity": ".6048866179184154",
        "semi_major_axis": "2.769868219838664",
        "inclination": "5.959904060408248",
        "ascending_node_longitude": "356.9282571126724",
        "orbital_period": "1683.786751307917",
        "perihelion_distance": "1.094412000260753",
        "perihelion_argument": ".5050725966868479",
        "aphelion_distance": "4.445324439416576",
        "perihelion_time": "2459809.220760538277",
        "mean_anomaly": "187.0924310530231",
        "mean_motion": ".2138037965439284",
        "equinox": "J2000",
        "orbit_class": {
            "orbit_class_type": "AMO",
            "orbit_class_description": "Near-Earth asteroid orbits similar to that of 1221 Amor",
            "orbit_class_range": "1.017 AU < q (perihelion) < 1.3 AU"
        }
    },
    "is_sentry_object": false
}